2024-205C               
1 61896U 24205C   26067.20867002  .00012247  00000+0  67177-3 0  9995
2 61896  97.4204 141.0161 0044383 341.9375  18.0277 15.13448144 72971
STARLINK-35201          
1 65664U 25211N   26068.69179024  .00008784  00000+0  61176-3 0  9998
2 65664  97.6020 114.0910 0001210  89.6272 270.5094 15.05678627 27044
